start=new Date('2022-03-04T00:00:00.000Z').valueOf();
sats=[{"MEAN_MOTION":"15.06402015","PERIAPSIS":"545.966","SITE":"AFETR","GP_ID":"197704877","TLE_LINE2":"2 45093  53.0564 352.9745 0001792  67.8045 292.3134 15.06402015115881","OBJECT_NAME":"STARLINK-1142","MEAN_MOTION_DOT":"0.00000986","ECCENTRICITY":"0.00017920","BSTAR":"0.00008509500000","FILE":"3342689","ARG_OF_PERICENTER":"67.8045","SEMIMAJOR_AXIS":"6925.342","OBJECT_ID":"2020-006BB","RA_OF_ASC_NODE":"352.9745","ELEMENT_SET_NO":"999","TIME_SYSTEM":"UTC","PERIOD":"95.592","CENTER_NAME":"EARTH","EPOCH":"2022-03-03T12:37:28.394112","NORAD_CAT_ID":"45093","APOAPSIS":"548.448","LAUNCH_DATE":"2020-01-29","TLE_LINE1":"1 45093U 20006BB  22062.52602308  .00000986  00000-0  85095-4 0  9991","DECAY_DATE":null,"REF_FRAME":"TEME","COUNTRY_CODE":"US","MEAN_ANOMALY":"292.3134","REV_AT_EPOCH":"11588","MEAN_ELEMENT_THEORY":"SGP4","INCLINATION":"53.0564","MEAN_MOTION_DDOT":"0.0000000000000","CLASSIFICATION_TYPE":"U","EPHEMERIS_TYPE":"0","OBJECT_TYPE":"PAYLOAD","RCS_SIZE":"LARGE"},{"OBJECT_NAME":"STARLINK-1146","ECCENTRICITY":"0.00016480","MEAN_MOTION_DOT":"0.00000004","FILE":"3343255","BSTAR":"0.00001915400000","MEAN_MOTION":"15.06413698","SITE":"AFETR","PERIAPSIS":"546.030","GP_ID":"197765044","TLE_LINE2":"2 45094  53.0579 352.9097 0001648  69.7348 290.3818 15.06413698115892","ARG_OF_PERICENTER":"69.7348","SEMIMAJOR_AXIS":"6925.307","OBJECT_ID":"2020-006BC","PERIOD":"95.591","CENTER_NAME":"EARTH","NORAD_CAT_ID":"45094","EPOCH":"2022-03-03T12:58:42.300768","RA_OF_ASC_NODE":"352.9097","ELEMENT_SET_NO":"999","TIME_SYSTEM":"UTC","CLASSIFICATION_TYPE":"U","EPHEMERIS_TYPE":"0","RCS_SIZE":"LARGE","OBJECT_TYPE":"PAYLOAD","APOAPSIS":"548.313","MEAN_ANOMALY":"290.3818","TLE_LINE1":"1 45094U 20006BC  22062.54076737  .00000004  00000-0  19154-4 0  9999","LAUNCH_DATE":"2020-01-29","DECAY_DATE":null,"COUNTRY_CODE":"US","REF_FRAME":"TEME","MEAN_ELEMENT_THEORY":"SGP4","REV_AT_EPOCH":"11589","MEAN_MOTION_DDOT":"0.0000000000000","INCLINATION":"53.0579"},{"TIME_SYSTEM":"UTC","RA_OF_ASC_NODE":"351.4137","ELEMENT_SET_NO":"999","EPOCH":"2022-03-03T21:01:42.632832","NORAD_CAT_ID":"45095","PERIOD":"95.592","CENTER_NAME":"EARTH","REV_AT_EPOCH":"11594","MEAN_ELEMENT_THEORY":"SGP4","INCLINATION":"53.0565","MEAN_MOTION_DDOT":"0.0000000000000","APOAPSIS":"548.466","DECAY_DATE":null,"TLE_LINE1":"1 45095U 20006BD  22062.87618788  .00000476  00000-0  50852-4 0  9997","COUNTRY_CODE":"US","LAUNCH_DATE":"2020-01-29","REF_FRAME":"TEME","MEAN_ANOMALY":"295.6697","OBJECT_TYPE":"PAYLOAD","RCS_SIZE":"LARGE","CLASSIFICATION_TYPE":"U","EPHEMERIS_TYPE":"0","SITE":"AFETR","PERIAPSIS":"545.982","GP_ID":"197766296","TLE_LINE2":"2 45095  53.0565 351.4137 0001794  64.4477 295.6697 15.06396584115947","MEAN_MOTION":"15.06396584","BSTAR":"0.00005085200000","FILE":"3343255","OBJECT_NAME":"STARLINK-1147","ECCENTRICITY":"0.00017940","MEAN_MOTION_DOT":"0.00000476","ARG_OF_PERICENTER":"64.4477","SEMIMAJOR_AXIS":"6925.359","OBJECT_ID":"2020-006BD"},{"CLASSIFICATION_TYPE":"U","EPHEMERIS_TYPE":"0","OBJECT_TYPE":"PAYLOAD","RCS_SIZE":"LARGE","APOAPSIS":"548.423","DECAY_DATE":null,"TLE_LINE1":"1 45096U 20006BE  22062.80245815  .00001789  00000-0  13898-3 0  9994","REF_FRAME":"TEME","LAUNCH_DATE":"2020-01-29","COUNTRY_CODE":"US","MEAN_ANOMALY":"297.4466","REV_AT_EPOCH":"11592","MEAN_ELEMENT_THEORY":"SGP4","INCLINATION":"53.0546","MEAN_MOTION_DDOT":"0.0000000000000","PERIOD":"95.592","CENTER_NAME":"EARTH","EPOCH":"2022-03-03T19:15:32.384160","NORAD_CAT_ID":"45096","RA_OF_ASC_NODE":"351.7460","ELEMENT_SET_NO":"999","TIME_SYSTEM":"UTC","ARG_OF_PERICENTER":"62.6704","SEMIMAJOR_AXIS":"6925.326","OBJECT_ID":"2020-006BE","OBJECT_NAME":"STARLINK-1152","ECCENTRICITY":"0.00017790","MEAN_MOTION_DOT":"0.00001789","BSTAR":"0.00013898000000","FILE":"3343255","MEAN_MOTION":"15.06407300","PERIAPSIS":"545.959","SITE":"AFETR","TLE_LINE2":"2 45096  53.0546 351.7460 0001779  62.6704 297.4466 15.06407300115926","GP_ID":"197766046"},{"OBJECT_NAME":"STARLINK-1184","MEAN_MOTION_DOT":"0.00003230","ECCENTRICITY":"0.00015210","FILE":"3342689","BSTAR":"0.00023561000000","MEAN_MOTION":"15.06403851","PERIAPSIS":"546.148","SITE":"AFETR","TLE_LINE2":"2 45098  53.0538 353.0177 0001521  74.2567 285.8590 15.06403851115881","GP_ID":"197704378","SEMIMAJOR_AXIS":"6925.337","ARG_OF_PERICENTER":"74.2567","OBJECT_ID":"2020-006BG","PERIOD":"95.592","CENTER_NAME":"EARTH","NORAD_CAT_ID":"45098","EPOCH":"2022-03-03T12:26:50.839008","RA_OF_ASC_NODE":"353.0177","ELEMENT_SET_NO":"999","TIME_SYSTEM":"UTC","CLASSIFICATION_TYPE":"U","EPHEMERIS_TYPE":"0","OBJECT_TYPE":"PAYLOAD","RCS_SIZE":"LARGE","APOAPSIS":"548.255","MEAN_ANOMALY":"285.8590","TLE_LINE1":"1 45098U 20006BG  22062.51864397  .00003230  00000-0  23561-3 0  9997","LAUNCH_DATE":"2020-01-29","DECAY_DATE":null,"REF_FRAME":"TEME","COUNTRY_CODE":"US","MEAN_ELEMENT_THEORY":"SGP4","REV_AT_EPOCH":"11588","MEAN_MOTION_DDOT":"0.0000000000000","INCLINATION":"53.0538"},{"TIME_SYSTEM":"UTC","ELEMENT_SET_NO":"999","RA_OF_ASC_NODE":"354.0519","NORAD_CAT_ID":"45099","EPOCH":"2022-03-03T06:52:27.586560","CENTER_NAME":"EARTH","PERIOD":"95.592","MEAN_MOTION_DDOT":"0.0000000000000","INCLINATION":"53.0568","REV_AT_EPOCH":"11585","MEAN_ELEMENT_THEORY":"SGP4","MEAN_ANOMALY":"303.2936","TLE_LINE1":"1 45099U 20006BH  22062.28643040  .00000231  00000-0  34420-4 0  9997","DECAY_DATE":null,"LAUNCH_DATE":"2020-01-29","REF_FRAME":"TEME","COUNTRY_CODE":"US","APOAPSIS":"548.487","RCS_SIZE":"LARGE","OBJECT_TYPE":"PAYLOAD","EPHEMERIS_TYPE":"0","CLASSIFICATION_TYPE":"U","TLE_LINE2":"2 45099  53.0568 354.0519 0001824  56.8227 303.2936 15.06396573115859","GP_ID":"197704628","SITE":"AFETR","PERIAPSIS":"545.961","MEAN_MOTION":"15.06396573","FILE":"3342689","BSTAR":"0.00003442000000","MEAN_MOTION_DOT":"0.00000231","ECCENTRICITY":"0.00018240","OBJECT_NAME":"STARLINK-1186","OBJECT_ID":"2020-006BH","ARG_OF_PERICENTER":"56.8227","SEMIMAJOR_AXIS":"6925.359"},{"RCS_SIZE":"LARGE","OBJECT_TYPE":"PAYLOAD","EPHEMERIS_TYPE":"0","CLASSIFICATION_TYPE":"U","INCLINATION":"53.0565","MEAN_MOTION_DDOT":"0.0000000000000","MEAN_ELEMENT_THEORY":"SGP4","REV_AT_EPOCH":"11588","TLE_LINE1":"1 45100U 20006BJ  22062.51496636  .00006938  00000-0  48418-3 0  9994","DECAY_DATE":null,"REF_FRAME":"TEME","LAUNCH_DATE":"2020-01-29","COUNTRY_CODE":"US","MEAN_ANOMALY":"295.3839","APOAPSIS":"548.385","EPOCH":"2022-03-03T12:21:33.093504","NORAD_CAT_ID":"45100","CENTER_NAME":"EARTH","PERIOD":"95.592","TIME_SYSTEM":"UTC","ELEMENT_SET_NO":"999","RA_OF_ASC_NODE":"353.0135","OBJECT_ID":"2020-006BJ","ARG_OF_PERICENTER":"64.7327","SEMIMAJOR_AXIS":"6925.339","BSTAR":"0.00048418000000","FILE":"3342689","MEAN_MOTION_DOT":"0.00006938","ECCENTRICITY":"0.00017060","OBJECT_NAME":"STARLINK-1193","TLE_LINE2":"2 45100  53.0565 353.0135 0001706  64.7327 295.3839 15.06403243115889","GP_ID":"197705879","PERIAPSIS":"546.022","SITE":"AFETR","MEAN_MOTION":"15.06403243"},{"MEAN_MOTION":"15.06395677","PERIAPSIS":"546.126","SITE":"AFETR","TLE_LINE2":"2 45101  53.0561 353.0267 0001589  64.4459 295.6694 15.06395677115887","GP_ID":"197705628","OBJECT_NAME":"STARLINK-1194","ECCENTRICITY":"0.00015890","MEAN_MOTION_DOT":"-0.00000176","FILE":"3342689","BSTAR":"0.00000708560000","ARG_OF_PERICENTER":"64.4459","SEMIMAJOR_AXIS":"6925.362","OBJECT_ID":"2020-006BK","RA_OF_ASC_NODE":"353.0267","ELEMENT_SET_NO":"999","TIME_SYSTEM":"UTC","PERIOD":"95.592","CENTER_NAME":"EARTH","NORAD_CAT_ID":"45101","EPOCH":"2022-03-03T12:16:14.508192","APOAPSIS":"548.327","MEAN_ANOMALY":"295.6694","LAUNCH_DATE":"2020-01-29","TLE_LINE1":"1 45101U 20006BK  22062.51127903 -.00000176  00000-0  70856-5 0  9995","DECAY_DATE":null,"REF_FRAME":"TEME","COUNTRY_CODE":"US","MEAN_ELEMENT_THEORY":"SGP4","REV_AT_EPOCH":"11588","MEAN_MOTION_DDOT":"0.0000000000000","INCLINATION":"53.0561","CLASSIFICATION_TYPE":"U","EPHEMERIS_TYPE":"0","OBJECT_TYPE":"PAYLOAD","RCS_SIZE":"LARGE"},{"OBJECT_ID":"2020-006BL","ARG_OF_PERICENTER":"68.6465","SEMIMAJOR_AXIS":"6925.319","MEAN_MOTION_DOT":"0.00001378","ECCENTRICITY":"0.00020410","OBJECT_NAME":"STARLINK-1195","BSTAR":"0.00011140000000","FILE":"3343255","MEAN_MOTION":"15.06409563","GP_ID":"197764795","TLE_LINE2":"2 45102  53.0546 351.7615 0002041  68.6465 291.4742 15.06409563115923","SITE":"AFETR","PERIAPSIS":"545.771","EPHEMERIS_TYPE":"0","CLASSIFICATION_TYPE":"U","RCS_SIZE":"LARGE","OBJECT_TYPE":"PAYLOAD","DECAY_DATE":null,"TLE_LINE1":"1 45102U 20006BL  22062.79876592  .00001378  00000-0  11140-3 0  9994","COUNTRY_CODE":"US","LAUNCH_DATE":"2020-01-29","REF_FRAME":"TEME","MEAN_ANOMALY":"291.4742","APOAPSIS":"548.598","INCLINATION":"53.0546","MEAN_MOTION_DDOT":"0.0000000000000","MEAN_ELEMENT_THEORY":"SGP4","REV_AT_EPOCH":"11592","CENTER_NAME":"EARTH","PERIOD":"95.592","EPOCH":"2022-03-03T19:10:13.375488","NORAD_CAT_ID":"45102","ELEMENT_SET_NO":"999","RA_OF_ASC_NODE":"351.7615","TIME_SYSTEM":"UTC"},{"TIME_SYSTEM":"UTC","RA_OF_ASC_NODE":"351.6725","ELEMENT_SET_NO":"999","NORAD_CAT_ID":"45103","EPOCH":"2022-03-03T19:56:39.013440","PERIOD":"95.592","CENTER_NAME":"EARTH","MEAN_ELEMENT_THEORY":"SGP4","REV_AT_EPOCH":"11593","MEAN_MOTION_DDOT":"0.0000000000000","INCLINATION":"53.0517","APOAPSIS":"548.360","MEAN_ANOMALY":"289.8124","COUNTRY_CODE":"US","TLE_LINE1":"1 45103U 20006BM  22062.83100710  .00000658  00000-0  63062-4 0  9993","DECAY_DATE":null,"LAUNCH_DATE":"2020-01-29","REF_FRAME":"TEME","RCS_SIZE":"LARGE","OBJECT_TYPE":"PAYLOAD","CLASSIFICATION_TYPE":"U","EPHEMERIS_TYPE":"0","PERIAPSIS":"546.055","SITE":"AFETR","GP_ID":"197765045","TLE_LINE2":"2 45103  53.0517 351.6725 0001664  70.3044 289.8124 15.06401898115935","MEAN_MOTION":"15.06401898","FILE":"3343255","BSTAR":"0.00006306200000","OBJECT_NAME":"STARLINK-1196","MEAN_MOTION_DOT":"0.00000658","ECCENTRICITY":"0.00016640","ARG_OF_PERICENTER":"70.3044","SEMIMAJOR_AXIS":"6925.343","OBJECT_ID":"2020-006BM"}];
